NORAD_CAT_ID,OBJECT_NAME,OBJECT_TYPE,EPOCH,MEAN_MOTION,ECCENTRICITY,INCLINATION,RA_OF_ASC_NODE,ARG_OF_PERICENTER,MEAN_ANOMALY,BSTAR,MEAN_MOTION_DOT,MEAN_MOTION_DDOT,TLE_LINE0,TLE_LINE1,TLE_LINE2,SEMIMAJOR_AXIS,PERIOD,APOGEE,PERIGEE,DECAYED
51792.0,STARLINK-3626,PAYLOAD,2024-02-29 17:26:22,15.08843692,0.0001809,53.2169,66.4566,80.2252,279.8944,0.00019507,2.818e-05,0.0,0 STARLINK-3626,1 51792U 22017AA  24060.72664905  .00002818  00000-0  19507-3 0  9991,2 51792  53.2169  66.4566 0001809  80.2252 279.8944 15.08843692112410,6917.869,95.437,540.986,538.483,0.0
51792.0,STARLINK-3626,PAYLOAD,2024-03-01 07:44:51,15.08837278,0.0001894,53.2171,63.7804,83.147,276.9737,9.4959e-06,-1.37e-06,0.0,0 STARLINK-3626,1 51792U 22017AA  24061.32281324 -.00000137  00000-0  94959-5 0  9997,2 51792  53.2171  63.7804 0001894  83.1470 276.9737 15.08837278112507,6917.889,95.438,541.064,538.443,0.0
51792.0,STARLINK-3626,PAYLOAD,2024-03-01 17:17:09,15.08848604,0.0001855,53.2179,61.9962,84.1997,275.9207,0.00011441,1.534e-05,0.0,0 STARLINK-3626,1 51792U 22017AA  24061.72024778  .00001534  00000-0  11441-3 0  9993,2 51792  53.2179  61.9962 0001855  84.1997 275.9207 15.08848604112564,6917.854,95.437,541.002,538.436,0.0
51792.0,STARLINK-3626,PAYLOAD,2024-03-02 06:00:14,15.08843532,0.0001894,53.2175,59.6166,84.5849,275.5359,0.00015445,2.171e-05,0.0,0 STARLINK-3626,1 51792U 22017AA  24062.25017151  .00002171  00000-0  15445-3 0  9995,2 51792  53.2175  59.6166 0001894  84.5849 275.5359 15.08843532112641,6917.87,95.437,541.045,538.424,0.0
51792.0,STARLINK-3626,PAYLOAD,2024-03-02 17:07:56,15.08851971,0.0001938,53.218,57.5352,84.778,275.3433,0.00025915,3.84e-05,0.0,0 STARLINK-3626,1 51792U 22017AA  24062.71384669  .00003840  00000-0  25915-3 0  9994,2 51792  53.2180  57.5352 0001938  84.7780 275.3433 15.08851971112711,6917.844,95.437,541.049,538.368,0.0
51792.0,STARLINK-3626,PAYLOAD,2024-03-03 05:51:02,15.08833601,0.0001656,53.2177,55.1556,93.0481,267.0701,3.3853e-05,2.51e-06,0.0,0 STARLINK-3626,1 51792U 22017AA  24063.24377591  .00000251  00000-0  33853-4 0  9993,2 51792  53.2177  55.1556 0001656  93.0481 267.0701 15.08833601112799,6917.9,95.438,540.911,538.619,0.0
51792.0,STARLINK-3626,PAYLOAD,2024-03-03 09:01:48,15.08839173,0.0001872,53.2176,54.5581,101.2402,258.8801,3.999e-05,3.48e-06,0.0,0 STARLINK-3626,1 51792U 22017AA  24063.37625297  .00000348  00000-0  39990-4 0  9991,2 51792  53.2176  54.5581 0001872 101.2402 258.8801 15.08839173112816,6917.883,95.438,541.043,538.453,0.0
51792.0,STARLINK-3626,PAYLOAD,2024-03-04 05:41:48,15.08849684,0.0001933,53.2177,50.6925,108.0983,252.022,0.00025646,3.797e-05,0.0,0 STARLINK-3626,1 51792U 22017AA  24064.23736889  .00003797  00000-0  25646-3 0  9990,2 51792  53.2177  50.6925 0001933 108.0983 252.0220 15.08849684112946,6917.851,95.437,541.053,538.379,0.0
51792.0,STARLINK-3626,PAYLOAD,2024-03-05 03:57:12,15.08838192,0.000213,53.218,46.529,132.2645,227.8528,0.00010999,1.463e-05,0.0,0 STARLINK-3626,1 51792U 22017AA  24065.16473343  .00001463  00000-0  10999-3 0  9999,2 51792  53.2180  46.5290 0002130 132.2645 227.8528 15.08838192113082,6917.886,95.438,541.224,538.277,0.0
51792.0,STARLINK-3626,PAYLOAD,2024-03-05 05:32:36,15.0882213,0.0001547,53.2179,46.2323,97.931,262.1858,-0.00028401,-4.803e-05,0.0,0 STARLINK-3626,1 51792U 22017AA  24065.23097837 -.00004803  00000-0 -28401-3 0  9997,2 51792  53.2179  46.2323 0001547  97.9310 262.1858 15.08822130113095,6917.935,95.439,540.87,538.73,0.0
51792.0,STARLINK-3626,PAYLOAD,2024-03-05 21:26:28,15.08830162,0.0001323,53.2177,43.261,102.155,257.959,5.0506e-05,5.16e-06,0.0,0 STARLINK-3626,1 51792U 22017AA  24065.89338226  .00000516  00000-0  50506-4 0  9996,2 51792  53.2177  43.2610 0001323 102.1550 257.9590 15.08830162113196,6917.91,95.438,540.691,538.86,0.0
51792.0,STARLINK-3626,PAYLOAD,2024-03-06 03:48:00,15.08840244,0.0001333,53.2175,42.0729,96.9058,263.2085,0.00069898,0.00010854,0.0,0 STARLINK-3626,1 51792U 22017AA  24066.15834278  .00010854  00000-0  69898-3 0  9993,2 51792  53.2175  42.0729 0001333  96.9058 263.2085 15.08840244113232,6917.88,95.438,540.667,538.822,0.0
51792.0,STARLINK-3626,PAYLOAD,2024-03-07 03:38:47,15.0885046,0.0001328,53.2173,37.6126,98.4457,261.6686,0.00043556,6.653e-05,0.0,0 STARLINK-3626,1 51792U 22017AA  24067.15194043  .00006653  00000-0  43556-3 0  9998,2 51792  53.2173  37.6126 0001328  98.4457 261.6686 15.08850460113381,6917.848,95.437,540.632,538.795,0.0
51792.0,STARLINK-3626,PAYLOAD,2024-03-07 05:14:10,15.08848227,0.0001374,53.2173,37.3145,97.7792,262.3356,0.00029794,4.458e-05,0.0,0 STARLINK-3626,1 51792U 22017AA  24067.21818030  .00004458  00000-0  29794-3 0  9993,2 51792  53.2173  37.3145 0001374  97.7792 262.3356 15.08848227113395,6917.855,95.437,540.671,538.77,0.0
51792.0,STARLINK-3626,PAYLOAD,2024-03-08 03:29:34,15.08840831,0.0002018,53.2196,33.1522,98.8873,261.2348,6.0446e-05,6.74e-06,0.0,0 STARLINK-3626,1 51792U 22017AA  24068.14554133  .00000674  00000-0  60446-4 0  9993,2 51792  53.2196  33.1522 0002018  98.8873 261.2348 15.08840831113539,6917.878,95.438,541.139,538.347,0.0
51792.0,STARLINK-3626,PAYLOAD,2024-03-08 06:40:20,15.08847157,0.0001741,53.2187,32.5566,94.6378,265.4813,0.0001539,2.163e-05,0.0,0 STARLINK-3626,1 51792U 22017AA  24068.27801843  .00002163  00000-0  15390-3 0  9992,2 51792  53.2187  32.5566 0001741  94.6378 265.4813 15.08847157113559,6917.859,95.437,540.928,538.519,0.0
51792.0,STARLINK-3626,PAYLOAD,2024-03-08 14:37:16,15.08858745,0.0001756,53.2187,31.064,80.1864,279.9327,0.00038733,5.885e-05,0.0,0 STARLINK-3626,1 51792U 22017AA  24068.60921342  .00005885  00000-0  38733-3 0  9996,2 51792  53.2187  31.0640 0001756  80.1864 279.9327 15.08858745113603,6917.823,95.436,540.903,538.473,0.0
51792.0,STARLINK-3626,PAYLOAD,2024-03-09 04:55:44,15.08839716,0.0001565,53.2178,28.3921,85.4512,274.6659,7.2004e-05,8.58e-06,0.0,0 STARLINK-3626,1 51792U 22017AA  24069.20538026  .00000858  00000-0  72004-4 0  9991,2 51792  53.2178  28.3921 0001565  85.4512 274.6659 15.08839716113696,6917.881,95.438,540.829,538.664,0.0
51792.0,STARLINK-3626,PAYLOAD,2024-03-09 14:28:03,15.08848511,0.000161,53.2177,26.6077,86.0284,274.0892,0.00053616,8.257e-05,0.0,0 STARLINK-3626,1 51792U 22017AA  24069.60281901  .00008257  00000-0  53616-3 0  9990,2 51792  53.2177  26.6077 0001610  86.0284 274.0892 15.08848511113755,6917.854,95.437,540.833,538.606,0.0
51792.0,STARLINK-3626,PAYLOAD,2024-03-10 14:18:50,15.08854648,0.0001721,53.2181,22.1458,92.1787,267.9402,0.00047116,7.221e-05,0.0,0 STARLINK-3626,1 51792U 22017AA  24070.59641575  .00007221  00000-0  47116-3 0  9995,2 51792  53.2181  22.1458 0001721  92.1787 267.9402 15.08854648113906,6917.836,95.437,540.891,538.51,0.0
51792.0,STARLINK-3626,PAYLOAD,2024-03-11 03:01:55,15.08838819,0.0001343,53.2177,19.7684,94.8783,265.2362,0.00043094,6.577e-05,0.0,0 STARLINK-3626,1 51792U 22017AA  24071.12633924  .00006577  00000-0  43094-3 0  9998,2 51792  53.2177  19.7684 0001343  94.8783 265.2362 15.08838819113985,6917.884,95.438,540.678,538.82,0.0
51792.0,STARLINK-3626,PAYLOAD,2024-03-11 06:12:42,15.08839385,0.0001556,53.219,19.1725,103.1757,256.9408,0.00030901,4.633e-05,0.0,0 STARLINK-3626,1 51792U 22017AA  24071.25881959  .00004633  00000-0  30901-3 0  9999,2 51792  53.2190  19.1725 0001556 103.1757 256.9408 15.08839385114002,6917.882,95.438,540.824,538.671,0.0
51792.0,STARLINK-3626,PAYLOAD,2024-03-12 02:52:43,15.08837413,0.000148,53.219,15.307,103.6605,256.4552,0.00029643,4.433e-05,0.0,0 STARLINK-3626,1 51792U 22017AA  24072.11994413  .00004433  00000-0  29643-3 0  9994,2 51792  53.2190  15.3070 0001480 103.6605 256.4552 15.08837413114135,6917.888,95.438,540.777,538.729,0.0
51792.0,STARLINK-3626,PAYLOAD,2024-03-12 06:03:29,15.08839485,0.0001511,53.219,14.7124,103.5663,256.5498,0.00017652,2.522e-05,0.0,0 STARLINK-3626,1 51792U 22017AA  24072.25242352  .00002522  00000-0  17652-3 0  9991,2 51792  53.2190  14.7124 0001511 103.5663 256.5498 15.08839485114159,6917.882,95.438,540.792,538.702,0.0
51792.0,STARLINK-3626,PAYLOAD,2024-03-13 12:15:48,15.08855691,0.0001341,53.2183,9.0644,96.7239,263.3906,0.0003903,5.932e-05,0.0,0 STARLINK-3626,1 51792U 22017AA  24073.51097750  .00005932  00000-0  39030-3 0  9993,2 51792  53.2183   9.0644 0001341  96.7239 263.3906 15.08855691114346,6917.832,95.437,540.625,538.77,0.0
51792.0,STARLINK-3626,PAYLOAD,2024-03-13 20:12:44,15.08846163,0.0002039,53.2188,7.5795,101.0165,259.1057,0.00013944,1.932e-05,0.0,0 STARLINK-3626,1 51792U 22017AA  24073.84218132  .00001932  00000-0  13944-3 0  9990,2 51792  53.2188   7.5795 0002039 101.0165 259.1057 15.08846163114393,6917.862,95.437,541.137,538.316,0.0
51792.0,STARLINK-3626,PAYLOAD,2024-03-14 05:45:03,15.08845086,0.0001511,53.2188,5.7927,91.4069,268.7096,0.00015906,2.245e-05,0.0,0 STARLINK-3626,1 51792U 22017AA  24074.23962174  .00002245  00000-0  15906-3 0  9994,2 51792  53.2188   5.7927 0001511  91.4069 268.7096 15.08845086114458,6917.865,95.437,540.775,538.685,0.0
51792.0,STARLINK-3626,PAYLOAD,2024-03-15 04:00:27,15.08838087,0.0001383,53.2181,1.6274,85.1365,274.9785,-1.0878e-05,-4.61e-06,0.0,0 STARLINK-3626,1 51792U 22017AA  24075.16698505 -.00000461  00000-0 -10878-4 0  9995,2 51792  53.2181   1.6274 0001383  85.1365 274.9785 15.08838087114599,6917.886,95.438,540.708,538.794,0.0
51792.0,STARLINK-3626,PAYLOAD,2024-03-16 03:51:14,15.08842558,0.0001415,53.2181,357.1668,86.0607,274.0547,0.00014062,1.951e-05,0.0,0 STARLINK-3626,1 51792U 22017AA  24076.16058594  .00001951  00000-0  14062-3 0  9995,2 51792  53.2181 357.1668 0001415  86.0607 274.0547 15.08842558114742,6917.873,95.437,540.716,538.759,0.0
51792.0,STARLINK-3626,PAYLOAD,2024-03-16 18:09:42,15.08842191,0.0001452,53.2183,354.4884,82.6823,277.4334,0.00018618,2.677e-05,0.0,0 STARLINK-3626,1 51792U 22017AA  24076.75674667  .00002677  00000-0  18618-3 0  9992,2 51792  53.2183 354.4884 0001452  82.6823 277.4334 15.08842191114831,6917.874,95.437,540.743,538.734,0.0
